[{"OBJECT_NAME":"STARLINK-30862","OBJECT_ID":"2024-038K","EPOCH":"2026-03-09T05:30:16.655616","MEAN_MOTION":15.27577329,"ECCENTRICITY":9.632e-5,"INCLINATION":43.0042,"RA_OF_ASC_NODE":18.7746,"ARG_OF_PERICENTER":265.5721,"MEAN_ANOMALY":94.502,"EPHEMERIS_TYPE":0,"CLASSIFICATION_TYPE":"U","NORAD_CAT_ID":59032,"ELEMENT_SET_NO":999,"REV_AT_EPOCH":11470,"BSTAR":-6.781925e-6,"MEAN_MOTION_DOT":-4.49e-6,"MEAN_MOTION_DDOT":0},{"OBJECT_NAME":"SL-3 R\/B","OBJECT_ID":"1982-027B","EPOCH":"2026-03-09T22:44:40.208640","MEAN_MOTION":15.28335844,"ECCENTRICITY":0.00065199,"INCLINATION":81.188,"RA_OF_ASC_NODE":37.4466,"ARG_OF_PERICENTER":276.581,"MEAN_ANOMALY":83.4683,"EPHEMERIS_TYPE":0,"CLASSIFICATION_TYPE":"U","NORAD_CAT_ID":13121,"ELEMENT_SET_NO":999,"REV_AT_EPOCH":39859,"BSTAR":0.00030526741,"MEAN_MOTION_DOT":8.453e-5,"MEAN_MOTION_DDOT":0}]
